{
    "links": {
        "self": "http://www.neowsapp.com/rest/v1/neo/3595925?api_key=iIulBulltgU6a56xZRHN4H3l9WmuAYTsLGpBGhQ2"
    },
    "id": "3595925",
    "neo_reference_id": "3595925",
    "name": "(2012 BU1)",
    "designation": "2012 BU1",
    "nasa_jpl_url": "http://ssd.jpl.nasa.gov/sbdb.cgi?sstr=3595925",
    "absolute_magnitude_h": 27.7,
    "estimated_diameter": {
        "kilometers": {
            "estimated_diameter_min": 0.0076657557,
            "estimated_diameter_max": 0.0171411509
        },
        "meters": {
            "estimated_diameter_min": 7.6657557353,
            "estimated_diameter_max": 17.1411509231
        },
        "miles": {
            "estimated_diameter_min": 0.0047632783,
            "estimated_diameter_max": 0.0106510141
        },
        "feet": {
            "estimated_diameter_min": 25.1501180466,
            "estimated_diameter_max": 56.2373735944
        }
    },
    "is_potentially_hazardous_asteroid": false,
    "close_approach_data": [
        {
            "close_approach_date": "2012-01-14",
            "close_approach_date_full": "2012-Jan-14 11:53",
            "epoch_date_close_approach": 1326541980000,
            "relative_velocity": {
                "kilometers_per_second": "9.2927192196",
                "kilometers_per_hour": "33453.7891905142",
                "miles_per_hour": "20786.8836222948"
            },
            "miss_distance": {
                "astronomical": "0.0093685489",
                "lunar": "3.6443655221",
                "kilometers": "1401514.960430843",
                "miles": "870861.0140499134"
            },
            "orbiting_body": "Earth"
        },
        {
            "close_approach_date": "2012-04-27",
            "close_approach_date_full": "2012-Apr-27 08:30",
            "epoch_date_close_approach": 1335515400000,
            "relative_velocity": {
                "kilometers_per_second": "12.0697088941",
                "kilometers_per_hour": "43450.9520187823",
                "miles_per_hour": "26998.7318252262"
            },
            "miss_distance": {
                "astronomical": "0.0630824863",
                "lunar": "24.5390871707",
                "kilometers": "9437005.584784181",
                "miles": "5863883.3585004578"
            },
            "orbiting_body": "Mars"
        },
        {
            "close_approach_date": "2014-02-06",
            "close_approach_date_full": "2014-Feb-06 18:14",
            "epoch_date_close_approach": 1391710440000,
            "relative_velocity": {
                "kilometers_per_second": "18.8470401492",
                "kilometers_per_hour": "67849.3445371463",
                "miles_per_hour": "42158.9441097618"
            },
            "miss_distance": {
                "astronomical": "0.3208032888",
                "lunar": "124.7924793432",
                "kilometers": "47991488.693474856",
                "miles": "29820528.2778547728"
            },
            "orbiting_body": "Earth"
        }
    ],
    "orbital_data": {
        "orbit_id": "7",
        "orbit_determination_date": "2017-04-06 08:51:26",
        "first_observation_date": "2012-01-18",
        "last_observation_date": "2012-01-25",
        "data_arc_in_days": 7,
        "observations_used": 31,
        "orbit_uncertainty": "7",
        "minimum_orbit_intersection": ".000342507",
        "jupiter_tisserand_invariant": "4.223",
        "epoch_osculation": "2459000.5",
        "eccentricity": ".4425941760574938",
        "semi_major_axis": "1.6138671250156",
        "inclination": ".4250396199195756",
        "ascending_node_longitude": "294.4782940917064",
        "orbital_period": "748.8590615351312",
        "perihelion_distance": ".8995789345530442",
        "perihelion_argument": "133.8341303176388",
        "aphelion_distance": "2.328155315478156",
        "perihelion_time": "2458901.995149890190",
        "mean_anomaly": "47.35436594282009",
        "mean_motion": ".4807313131285537",
        "equinox": "J2000",
        "orbit_class": {
            "orbit_class_type": "APO",
            "orbit_class_description": "Near-Earth asteroid orbits which cross the Earth’s orbit similar to that of 1862 Apollo",
            "orbit_class_range": "a (semi-major axis) > 1.0 AU; q (perihelion) < 1.017 AU"
        }
    },
    "is_sentry_object": false
}